ONEWEB-0327             
1 49196U 21083L   23295.56488685 -.00001633  00000+0 -41752-2 0  9999
2 49196  87.9255 168.1342 0001992  85.7947 274.3412 13.18692241102365
ONEWEB-0328             
1 49197U 21083M   23295.54765921 -.00000174  00000+0 -51089-3 0  9993
2 49197  87.9015 152.9886 0001453  84.7655 275.3640 13.13469663103743
ONEWEB-0331             
1 49198U 21083N   23295.58488017 -.00003737  00000+0 -95137-2 0  9995
2 49198  87.9188 168.1376 0001799  76.7394 283.3939 13.18703474102354
ONEWEB-0333             
1 49199U 21083P   23295.54235477  .00000035  00000+0  59854-4 0  9996
2 49199  87.9016 152.9922 0001746  71.5692 288.5627 13.13472227103759
ONEWEB-0334             
1 49200U 21083Q   23295.56041324  .00001087  00000+0  26424-2 0  9990
2 49200  87.9144 107.3287 0002331  67.8422 292.2958 13.20768005108936
ONEWEB-0335             
1 49201U 21083R   23295.53814788  .00000338  00000+0  89085-3 0  9991
2 49201  87.9021 152.9807 0001640  73.9133 286.2177 13.13472048103767
ONEWEB-0336             
1 49202U 21083S   23295.58257203  .00000125  00000+0  30749-3 0  9997
2 49202  87.9014 152.9708 0001743  76.0490 284.0832 13.13473361103767
ONEWEB-0337             
1 49203U 21083T   23295.59105526  .00000297  00000+0  77760-3 0  9993
2 49203  87.9011 152.9679 0001510  82.8216 277.3085 13.13469422103763
