<?xml version="1.0" encoding="UTF-8"?>
<ndm xmlns:xsi="http://www.w3.org/2001/XMLSchema-instance" xsi:noNamespaceSchemaLocation="https://sanaregistry.org/r/ndmxml_unqualified/ndmxml-2.0.0-master-2.0.xsd">
<omm id="CCSDS_OMM_VERS" version="2.0">
<header><CREATION_DATE/><ORIGINATOR/></header><body><segment><metadata><OBJECT_NAME>ONEWEB-0327</OBJECT_NAME><OBJECT_ID>2021-083L</OBJECT_ID><CENTER_NAME>EARTH</CENTER_NAME><REF_FRAME>TEME</REF_FRAME><TIME_SYSTEM>UTC</TIME_SYSTEM><MEAN_ELEMENT_THEORY>SGP4</MEAN_ELEMENT_THEORY></metadata><data><meanElements><EPOCH>2023-10-22T13:33:26.223840</EPOCH><MEAN_MOTION>13.18692241</MEAN_MOTION><ECCENTRICITY>.0001992</ECCENTRICITY><INCLINATION>87.9255</INCLINATION><RA_OF_ASC_NODE>168.1342</RA_OF_ASC_NODE><ARG_OF_PERICENTER>85.7947</ARG_OF_PERICENTER><MEAN_ANOMALY>274.3412</MEAN_ANOMALY></meanElements><tleParameters><EPHEMERIS_TYPE>0</EPHEMERIS_TYPE><CLASSIFICATION_TYPE>U</CLASSIFICATION_TYPE><NORAD_CAT_ID>49196</NORAD_CAT_ID><ELEMENT_SET_NO>999</ELEMENT_SET_NO><REV_AT_EPOCH>10236</REV_AT_EPOCH><BSTAR>-.41752E-2</BSTAR><MEAN_MOTION_DOT>-.1633E-4</MEAN_MOTION_DOT><MEAN_MOTION_DDOT>0</MEAN_MOTION_DDOT></tleParameters></data></segment></body></omm>
<omm id="CCSDS_OMM_VERS" version="2.0">
<header><CREATION_DATE/><ORIGINATOR/></header><body><segment><metadata><OBJECT_NAME>ONEWEB-0328</OBJECT_NAME><OBJECT_ID>2021-083M</OBJECT_ID><CENTER_NAME>EARTH</CENTER_NAME><REF_FRAME>TEME</REF_FRAME><TIME_SYSTEM>UTC</TIME_SYSTEM><MEAN_ELEMENT_THEORY>SGP4</MEAN_ELEMENT_THEORY></metadata><data><meanElements><EPOCH>2023-10-22T13:08:37.755744</EPOCH><MEAN_MOTION>13.13469663</MEAN_MOTION><ECCENTRICITY>.0001453</ECCENTRICITY><INCLINATION>87.9015</INCLINATION><RA_OF_ASC_NODE>152.9886</RA_OF_ASC_NODE><ARG_OF_PERICENTER>84.7655</ARG_OF_PERICENTER><MEAN_ANOMALY>275.3640</MEAN_ANOMALY></meanElements><tleParameters><EPHEMERIS_TYPE>0</EPHEMERIS_TYPE><CLASSIFICATION_TYPE>U</CLASSIFICATION_TYPE><NORAD_CAT_ID>49197</NORAD_CAT_ID><ELEMENT_SET_NO>999</ELEMENT_SET_NO><REV_AT_EPOCH>10374</REV_AT_EPOCH><BSTAR>-.51089E-3</BSTAR><MEAN_MOTION_DOT>-.174E-5</MEAN_MOTION_DOT><MEAN_MOTION_DDOT>0</MEAN_MOTION_DDOT></tleParameters></data></segment></body></omm>
<omm id="CCSDS_OMM_VERS" version="2.0">
<header><CREATION_DATE/><ORIGINATOR/></header><body><segment><metadata><OBJECT_NAME>ONEWEB-0331</OBJECT_NAME><OBJECT_ID>2021-083N</OBJECT_ID><CENTER_NAME>EARTH</CENTER_NAME><REF_FRAME>TEME</REF_FRAME><TIME_SYSTEM>UTC</TIME_SYSTEM><MEAN_ELEMENT_THEORY>SGP4</MEAN_ELEMENT_THEORY></metadata><data><meanElements><EPOCH>2023-10-22T14:02:13.646688</EPOCH><MEAN_MOTION>13.18703474</MEAN_MOTION><ECCENTRICITY>.0001799</ECCENTRICITY><INCLINATION>87.9188</INCLINATION><RA_OF_ASC_NODE>168.1376</RA_OF_ASC_NODE><ARG_OF_PERICENTER>76.7394</ARG_OF_PERICENTER><MEAN_ANOMALY>283.3939</MEAN_ANOMALY></meanElements><tleParameters><EPHEMERIS_TYPE>0</EPHEMERIS_TYPE><CLASSIFICATION_TYPE>U</CLASSIFICATION_TYPE><NORAD_CAT_ID>49198</NORAD_CAT_ID><ELEMENT_SET_NO>999</ELEMENT_SET_NO><REV_AT_EPOCH>10235</REV_AT_EPOCH><BSTAR>-.95137E-2</BSTAR><MEAN_MOTION_DOT>-.3737E-4</MEAN_MOTION_DOT><MEAN_MOTION_DDOT>0</MEAN_MOTION_DDOT></tleParameters></data></segment></body></omm>
<omm id="CCSDS_OMM_VERS" version="2.0">
<header><CREATION_DATE/><ORIGINATOR/></header><body><segment><metadata><OBJECT_NAME>ONEWEB-0333</OBJECT_NAME><OBJECT_ID>2021-083P</OBJECT_ID><CENTER_NAME>EARTH</CENTER_NAME><REF_FRAME>TEME</REF_FRAME><TIME_SYSTEM>UTC</TIME_SYSTEM><MEAN_ELEMENT_THEORY>SGP4</MEAN_ELEMENT_THEORY></metadata><data><meanElements><EPOCH>2023-10-22T13:00:59.452128</EPOCH><MEAN_MOTION>13.13472227</MEAN_MOTION><ECCENTRICITY>.0001746</ECCENTRICITY><INCLINATION>87.9016</INCLINATION><RA_OF_ASC_NODE>152.9922</RA_OF_ASC_NODE><ARG_OF_PERICENTER>71.5692</ARG_OF_PERICENTER><MEAN_ANOMALY>288.5627</MEAN_ANOMALY></meanElements><tleParameters><EPHEMERIS_TYPE>0</EPHEMERIS_TYPE><CLASSIFICATION_TYPE>U</CLASSIFICATION_TYPE><NORAD_CAT_ID>49199</NORAD_CAT_ID><ELEMENT_SET_NO>999</ELEMENT_SET_NO><REV_AT_EPOCH>10375</REV_AT_EPOCH><BSTAR>.59854E-4</BSTAR><MEAN_MOTION_DOT>.35E-6</MEAN_MOTION_DOT><MEAN_MOTION_DDOT>0</MEAN_MOTION_DDOT></tleParameters></data></segment></body></omm>
<omm id="CCSDS_OMM_VERS" version="2.0">
<header><CREATION_DATE/><ORIGINATOR/></header><body><segment><metadata><OBJECT_NAME>ONEWEB-0334</OBJECT_NAME><OBJECT_ID>2021-083Q</OBJECT_ID><CENTER_NAME>EARTH</CENTER_NAME><REF_FRAME>TEME</REF_FRAME><TIME_SYSTEM>UTC</TIME_SYSTEM><MEAN_ELEMENT_THEORY>SGP4</MEAN_ELEMENT_THEORY></metadata><data><meanElements><EPOCH>2023-10-22T13:26:59.703936</EPOCH><MEAN_MOTION>13.20768005</MEAN_MOTION><ECCENTRICITY>.0002331</ECCENTRICITY><INCLINATION>87.9144</INCLINATION><RA_OF_ASC_NODE>107.3287</RA_OF_ASC_NODE><ARG_OF_PERICENTER>67.8422</ARG_OF_PERICENTER><MEAN_ANOMALY>292.2958</MEAN_ANOMALY></meanElements><tleParameters><EPHEMERIS_TYPE>0</EPHEMERIS_TYPE><CLASSIFICATION_TYPE>U</CLASSIFICATION_TYPE><NORAD_CAT_ID>49200</NORAD_CAT_ID><ELEMENT_SET_NO>999</ELEMENT_SET_NO><REV_AT_EPOCH>10893</REV_AT_EPOCH><BSTAR>.26424E-2</BSTAR><MEAN_MOTION_DOT>.1087E-4</MEAN_MOTION_DOT><MEAN_MOTION_DDOT>0</MEAN_MOTION_DDOT></tleParameters></data></segment></body></omm>
<omm id="CCSDS_OMM_VERS" version="2.0">
<header><CREATION_DATE/><ORIGINATOR/></header><body><segment><metadata><OBJECT_NAME>ONEWEB-0335</OBJECT_NAME><OBJECT_ID>2021-083R</OBJECT_ID><CENTER_NAME>EARTH</CENTER_NAME><REF_FRAME>TEME</REF_FRAME><TIME_SYSTEM>UTC</TIME_SYSTEM><MEAN_ELEMENT_THEORY>SGP4</MEAN_ELEMENT_THEORY></metadata><data><meanElements><EPOCH>2023-10-22T12:54:55.976832</EPOCH><MEAN_MOTION>13.13472048</MEAN_MOTION><ECCENTRICITY>.000164</ECCENTRICITY><INCLINATION>87.9021</INCLINATION><RA_OF_ASC_NODE>152.9807</RA_OF_ASC_NODE><ARG_OF_PERICENTER>73.9133</ARG_OF_PERICENTER><MEAN_ANOMALY>286.2177</MEAN_ANOMALY></meanElements><tleParameters><EPHEMERIS_TYPE>0</EPHEMERIS_TYPE><CLASSIFICATION_TYPE>U</CLASSIFICATION_TYPE><NORAD_CAT_ID>49201</NORAD_CAT_ID><ELEMENT_SET_NO>999</ELEMENT_SET_NO><REV_AT_EPOCH>10376</REV_AT_EPOCH><BSTAR>.89085E-3</BSTAR><MEAN_MOTION_DOT>.338E-5</MEAN_MOTION_DOT><MEAN_MOTION_DDOT>0</MEAN_MOTION_DDOT></tleParameters></data></segment></body></omm>
<omm id="CCSDS_OMM_VERS" version="2.0">
<header><CREATION_DATE/><ORIGINATOR/></header><body><segment><metadata><OBJECT_NAME>ONEWEB-0336</OBJECT_NAME><OBJECT_ID>2021-083S</OBJECT_ID><CENTER_NAME>EARTH</CENTER_NAME><REF_FRAME>TEME</REF_FRAME><TIME_SYSTEM>UTC</TIME_SYSTEM><MEAN_ELEMENT_THEORY>SGP4</MEAN_ELEMENT_THEORY></metadata><data><meanElements><EPOCH>2023-10-22T13:58:54.223392</EPOCH><MEAN_MOTION>13.13473361</MEAN_MOTION><ECCENTRICITY>.0001743</ECCENTRICITY><INCLINATION>87.9014</INCLINATION><RA_OF_ASC_NODE>152.9708</RA_OF_ASC_NODE><ARG_OF_PERICENTER>76.0490</ARG_OF_PERICENTER><MEAN_ANOMALY>284.0832</MEAN_ANOMALY></meanElements><tleParameters><EPHEMERIS_TYPE>0</EPHEMERIS_TYPE><CLASSIFICATION_TYPE>U</CLASSIFICATION_TYPE><NORAD_CAT_ID>49202</NORAD_CAT_ID><ELEMENT_SET_NO>999</ELEMENT_SET_NO><REV_AT_EPOCH>10376</REV_AT_EPOCH><BSTAR>.30749E-3</BSTAR><MEAN_MOTION_DOT>.125E-5</MEAN_MOTION_DOT><MEAN_MOTION_DDOT>0</MEAN_MOTION_DDOT></tleParameters></data></segment></body></omm>
<omm id="CCSDS_OMM_VERS" version="2.0">
<header><CREATION_DATE/><ORIGINATOR/></header><body><segment><metadata><OBJECT_NAME>ONEWEB-0337</OBJECT_NAME><OBJECT_ID>2021-083T</OBJECT_ID><CENTER_NAME>EARTH</CENTER_NAME><REF_FRAME>TEME</REF_FRAME><TIME_SYSTEM>UTC</TIME_SYSTEM><MEAN_ELEMENT_THEORY>SGP4</MEAN_ELEMENT_THEORY></metadata><data><meanElements><EPOCH>2023-10-22T14:11:07.174464</EPOCH><MEAN_MOTION>13.13469422</MEAN_MOTION><ECCENTRICITY>.000151</ECCENTRICITY><INCLINATION>87.9011</INCLINATION><RA_OF_ASC_NODE>152.9679</RA_OF_ASC_NODE><ARG_OF_PERICENTER>82.8216</ARG_OF_PERICENTER><MEAN_ANOMALY>277.3085</MEAN_ANOMALY></meanElements><tleParameters><EPHEMERIS_TYPE>0</EPHEMERIS_TYPE><CLASSIFICATION_TYPE>U</CLASSIFICATION_TYPE><NORAD_CAT_ID>49203</NORAD_CAT_ID><ELEMENT_SET_NO>999</ELEMENT_SET_NO><REV_AT_EPOCH>10376</REV_AT_EPOCH><BSTAR>.7776E-3</BSTAR><MEAN_MOTION_DOT>.297E-5</MEAN_MOTION_DOT><MEAN_MOTION_DDOT>0</MEAN_MOTION_DDOT></tleParameters></data></segment></body></omm>

</ndm>
